{"epoch":1784799577,"count":18318,"objects":[{"id":"64623","name":"HAWK-12A","type":"PAYLOAD","l1":"1 64623U 25138C   26202.31221979  .00002996  00000-0  14850-3 0  9993","l2":"2 64623  97.4421 204.5330 0014533  26.7224 333.4756 15.18432886 59041"},{"id":"67392","name":"HAWK-13A","type":"PAYLOAD","l1":"1 67392U 26004AF  26203.69450679  .00003761  00000-0  18086-3 0  9991","l2":"2 67392  97.4455 202.0636 0004915 188.9338 171.1810 15.19399999 29151"},{"id":"67393","name":"HAWK-13C","type":"PAYLOAD","l1":"1 67393U 26004AG  26203.69437235  .00003798  00000-0  18264-3 0  9993","l2":"2 67393  97.4600 202.5019 0004714 191.9589 168.1534 15.19396589 29154"},{"id":"67396","name":"HAWK-13B","type":"PAYLOAD","l1":"1 67396U 26004AK  26203.69427378  .00003765  00000-0  18105-3 0  9991","l2":"2 67396  97.4540 202.3192 0005978 194.1562 165.9506 15.19398704 29154"},{"id":"68436","name":"HAWK-14B","type":"PAYLOAD","l1":"1 68436U 26067W   26203.34147105  .00003737  00000-0  18461-3 0  9999","l2":"2 68436  97.4565 161.2945 0000813 319.1822  40.9352 15.18470429 17272"},{"id":"68441","name":"HAWK-14C","type":"PAYLOAD","l1":"1 68441U 26067AB  26203.86876327  .00004092  00000-0  20181-3 0  9994","l2":"2 68441  97.4501 161.6884 0001761   2.3284 357.7958 15.18473713 17359"},{"id":"68448","name":"HAWK-14A","type":"PAYLOAD","l1":"1 68448U 26067AJ  26203.60527487  .00003798  00000-0  18755-3 0  9999","l2":"2 68448  97.4627 161.6867 0002488 349.8208  10.2975 15.18474061 17311"}]}